<?xml version="1.0" encoding="UTF-8"?>
<kml xmlns="http://www.opengis.net/kml/2.2" xmlns:gx="http://www.google.com/kml/ext/2.2" xmlns:kml="http://www.opengis.net/kml/2.2" xmlns:atom="http://www.w3.org/2005/Atom" xmlns:ex="http://earth.google.com/kml/ext">
<Document id="1otAjfwGzwhuproKD775x1alPFCE0YkSH">
	<ex:extension>base64;Co4BCoEBCn8KAggBEnkKdwokCiAKAwjQDxoHCNLtZRD_ASEAAAAAAADwPykAAAAAAAAAABgAEg8KCAitgO8HEP8BEKAfGAAaGgoHCP___wcQQBIICK2A7wcQ_wEYoB8gACgAIgkIARIFCP___wcqFwgBEggI____BxD_ARkAAAAAAADwPyAAEgQIARAAGgIIAA</ex:extension>
	<name>Pogodno szlaki poprawione</name>
	<StyleMap id="__managed_style_22C44E537F4218035444">
		<Pair>
			<key>normal</key>
			<styleUrl>#__managed_style_22C44E537F4218035444_normal</styleUrl>
		</Pair>
		<Pair>
			<key>highlight</key>
			<styleUrl>#__managed_style_22C44E537F4218035444_highlight</styleUrl>
		</Pair>
	</StyleMap>
	<StyleMap id="__managed_style_0965C575E74218035444">
		<Pair>
			<key>normal</key>
			<styleUrl>#__managed_style_0965C575E74218035444_normal</styleUrl>
		</Pair>
		<Pair>
			<key>highlight</key>
			<styleUrl>#__managed_style_0965C575E74218035444_highlight</styleUrl>
		</Pair>
	</StyleMap>
	<gx:CascadingStyle kml:id="__managed_style_0965C575E74218035444_normal">
		<ex:extension>base64;EgIYAQ</ex:extension>
		<Style>
			<IconStyle>
				<Icon>
					<href>https://earth.google.com/earth/document/icon?color=1976d2&amp;id=2000&amp;scale=4</href>
				</Icon>
				<hotSpot x="64" y="128" xunits="pixels" yunits="insetPixels"/>
			</IconStyle>
			<LabelStyle>
			</LabelStyle>
			<LineStyle>
				<color>ff2dc0fb</color>
				<width>3</width>
			</LineStyle>
			<PolyStyle>
				<color>40ffffff</color>
			</PolyStyle>
			<BalloonStyle>
			</BalloonStyle>
		</Style>
	</gx:CascadingStyle>
	<gx:CascadingStyle kml:id="__managed_style_22C44E537F4218035444_normal">
		<ex:extension>base64;EgIYAQ</ex:extension>
		<Style>
			<IconStyle>
				<Icon>
					<href>https://earth.google.com/earth/document/icon?color=1976d2&amp;id=2000&amp;scale=4</href>
				</Icon>
				<hotSpot x="64" y="128" xunits="pixels" yunits="insetPixels"/>
			</IconStyle>
			<LabelStyle>
			</LabelStyle>
			<LineStyle>
				<color>ff2dc0fb</color>
				<width>3</width>
			</LineStyle>
			<PolyStyle>
				<color>40ffffff</color>
			</PolyStyle>
			<BalloonStyle>
			</BalloonStyle>
		</Style>
	</gx:CascadingStyle>
	<gx:CascadingStyle kml:id="__managed_style_36BDEDD25C4218035444_highlight">
		<ex:extension>base64;EgIYAQ</ex:extension>
		<Style>
			<IconStyle>
				<scale>1.2</scale>
				<Icon>
					<href>https://earth.google.com/earth/document/icon?color=1976d2&amp;id=2000&amp;scale=4</href>
				</Icon>
				<hotSpot x="64" y="128" xunits="pixels" yunits="insetPixels"/>
			</IconStyle>
			<LabelStyle>
			</LabelStyle>
			<LineStyle>
				<color>ff2f2fd3</color>
				<width>9</width>
			</LineStyle>
			<PolyStyle>
				<color>40ffffff</color>
			</PolyStyle>
			<BalloonStyle>
			</BalloonStyle>
		</Style>
	</gx:CascadingStyle>
	<gx:CascadingStyle kml:id="__managed_style_197FD981094218035444_highlight">
		<ex:extension>base64;EgIYAQ</ex:extension>
		<Style>
			<IconStyle>
				<scale>1.2</scale>
				<Icon>
					<href>https://earth.google.com/earth/document/icon?color=1976d2&amp;id=2000&amp;scale=4</href>
				</Icon>
				<hotSpot x="64" y="128" xunits="pixels" yunits="insetPixels"/>
			</IconStyle>
			<LabelStyle>
			</LabelStyle>
			<LineStyle>
				<color>ff3c8e38</color>
				<width>9</width>
			</LineStyle>
			<PolyStyle>
				<color>40ffffff</color>
			</PolyStyle>
			<BalloonStyle>
			</BalloonStyle>
		</Style>
	</gx:CascadingStyle>
	<gx:CascadingStyle kml:id="__managed_style_22C44E537F4218035444_highlight">
		<ex:extension>base64;EgIYAQ</ex:extension>
		<Style>
			<IconStyle>
				<scale>1.2</scale>
				<Icon>
					<href>https://earth.google.com/earth/document/icon?color=1976d2&amp;id=2000&amp;scale=4</href>
				</Icon>
				<hotSpot x="64" y="128" xunits="pixels" yunits="insetPixels"/>
			</IconStyle>
			<LabelStyle>
			</LabelStyle>
			<LineStyle>
				<color>ff2dc0fb</color>
				<width>4.5</width>
			</LineStyle>
			<PolyStyle>
				<color>40ffffff</color>
			</PolyStyle>
			<BalloonStyle>
			</BalloonStyle>
		</Style>
	</gx:CascadingStyle>
	<StyleMap id="__managed_style_36BDEDD25C4218035444">
		<Pair>
			<key>normal</key>
			<styleUrl>#__managed_style_36BDEDD25C4218035444_normal</styleUrl>
		</Pair>
		<Pair>
			<key>highlight</key>
			<styleUrl>#__managed_style_36BDEDD25C4218035444_highlight</styleUrl>
		</Pair>
	</StyleMap>
	<StyleMap id="__managed_style_197FD981094218035444">
		<Pair>
			<key>normal</key>
			<styleUrl>#__managed_style_197FD981094218035444_normal</styleUrl>
		</Pair>
		<Pair>
			<key>highlight</key>
			<styleUrl>#__managed_style_197FD981094218035444_highlight</styleUrl>
		</Pair>
	</StyleMap>
	<gx:CascadingStyle kml:id="__managed_style_197FD981094218035444_normal">
		<ex:extension>base64;EgIYAQ</ex:extension>
		<Style>
			<IconStyle>
				<Icon>
					<href>https://earth.google.com/earth/document/icon?color=1976d2&amp;id=2000&amp;scale=4</href>
				</Icon>
				<hotSpot x="64" y="128" xunits="pixels" yunits="insetPixels"/>
			</IconStyle>
			<LabelStyle>
			</LabelStyle>
			<LineStyle>
				<color>ff3c8e38</color>
				<width>6</width>
			</LineStyle>
			<PolyStyle>
				<color>40ffffff</color>
			</PolyStyle>
			<BalloonStyle>
			</BalloonStyle>
		</Style>
	</gx:CascadingStyle>
	<gx:CascadingStyle kml:id="__managed_style_0965C575E74218035444_highlight">
		<ex:extension>base64;EgIYAQ</ex:extension>
		<Style>
			<IconStyle>
				<scale>1.2</scale>
				<Icon>
					<href>https://earth.google.com/earth/document/icon?color=1976d2&amp;id=2000&amp;scale=4</href>
				</Icon>
				<hotSpot x="64" y="128" xunits="pixels" yunits="insetPixels"/>
			</IconStyle>
			<LabelStyle>
			</LabelStyle>
			<LineStyle>
				<color>ff2dc0fb</color>
				<width>4.5</width>
			</LineStyle>
			<PolyStyle>
				<color>40ffffff</color>
			</PolyStyle>
			<BalloonStyle>
			</BalloonStyle>
		</Style>
	</gx:CascadingStyle>
	<gx:CascadingStyle kml:id="__managed_style_36BDEDD25C4218035444_normal">
		<ex:extension>base64;EgIYAQ</ex:extension>
		<Style>
			<IconStyle>
				<Icon>
					<href>https://earth.google.com/earth/document/icon?color=1976d2&amp;id=2000&amp;scale=4</href>
				</Icon>
				<hotSpot x="64" y="128" xunits="pixels" yunits="insetPixels"/>
			</IconStyle>
			<LabelStyle>
			</LabelStyle>
			<LineStyle>
				<color>ff2f2fd3</color>
				<width>6</width>
			</LineStyle>
			<PolyStyle>
				<color>40ffffff</color>
			</PolyStyle>
			<BalloonStyle>
			</BalloonStyle>
		</Style>
	</gx:CascadingStyle>
	<Placemark id="0C292721AE4208E0FF3C">
		<name>Wzgórze Ackermana</name>
		<LookAt>
			<longitude>14.51413223925177</longitude>
			<latitude>53.43976932458474</latitude>
			<altitude>33.16472654468759</altitude>
			<heading>0</heading>
			<tilt>0</tilt>
			<gx:fovy>30</gx:fovy>
			<range>900.977349998866</range>
			<altitudeMode>absolute</altitudeMode>
		</LookAt>
		<styleUrl>#__managed_style_0965C575E74218035444</styleUrl>
		<LineString>
			<coordinates>
				14.52325504189928,53.43781962048088,0 14.52340418316484,53.43874462563645,0 14.5213984688457,53.43891497154013,0 14.52148401880143,53.43911448679853,0 14.52201471488167,53.43990346975129,0 14.52281174365952,53.43972480328134,0 14.52308529328659,53.44014716516915,0 14.52280780511231,53.43972513639165,0 14.52101712158857,53.44007726029487,0 14.52002257865692,53.44025704041743,0 14.52055798386695,53.44110447793926,0 14.52092975648876,53.44184187994039,0 14.51956041798737,53.44215825327075,0 14.51859595045769,53.44042743572499,0 14.5182115438009,53.44051954984583,0 14.51766130600514,53.44075447269017,0 14.51716120675852,53.44094693380102,0 14.51701309874723,53.44087449383867,0 14.51659631104376,53.4410070204666,0 14.51581145202002,53.44020234519385,0 14.51352610405272,53.4408008437172,0 
			</coordinates>
		</LineString>
	</Placemark>
	<Placemark id="059DD59F264208E6F224">
		<name>Braunswelde1</name>
		<LookAt>
			<longitude>14.52159083343816</longitude>
			<latitude>53.43484844800915</latitude>
			<altitude>28.60059100083239</altitude>
			<heading>0.9742055019113218</heading>
			<tilt>0</tilt>
			<gx:fovy>30</gx:fovy>
			<range>1505.8238767281</range>
			<altitudeMode>absolute</altitudeMode>
		</LookAt>
		<styleUrl>#__managed_style_0965C575E74218035444</styleUrl>
		<Polygon>
			<outerBoundaryIs>
				<LinearRing>
					<coordinates>
						14.52028366690906,53.43676487676694,0 14.52173693472219,53.43689810691885,0 14.5214929460576,53.43804566911358,0 14.52160374930324,53.43887403596268,0 14.52047200179421,53.4389826799148,0 14.51906356494704,53.43914491223951,0 14.51844327818426,53.43824685384075,0 14.51694191507561,53.43734644498509,0 14.51827179131254,53.43824818798113,0 14.51887596506951,53.43916450108832,0 14.51755003100067,53.43951711623559,0 14.51709184108975,53.43898044567008,0 14.51728239514953,53.43926673525523,0 14.5174819664102,53.4395331497168,0 14.51325279856514,53.44064462904654,0 14.51302624734189,53.4402877378832,0 14.51273724252044,53.44001160093202,0 14.5124107813539,53.43971019886385,0 14.51210806987444,53.43931766669674,0 14.51200964584991,53.4389358665935,0 14.51226575037471,53.43805850200975,0 14.51235578692315,53.43761841578105,0 14.51237619535228,53.43717871931955,0 14.51219539353758,53.4366264525876,0 14.51190807554978,53.43608393789088,0 14.51164171731331,53.4353036191962,0 14.51167510652181,53.4344792174388,0 14.5117838928704,53.43333572040369,0 14.5120975928086,53.43337189860441,0 14.5121735601997,53.43331510669921,0 14.5156099025934,53.43380038184892,0 14.51889420022501,53.43426300251033,0 14.52065090725935,53.43437890639964,0 14.52230231807349,53.43446862076022,0 14.5225457911372,53.43450436886704,0 14.5222289132613,53.43544491975826,0 14.52190148255063,53.43649710097554,0 14.52184664071576,53.4367020517717,0 14.5216297420895,53.43676743609999,0 14.52131359703467,53.43681502797319,0 14.52029335516778,53.43672489661598,0 14.52028366690906,53.43676487676694,0 
					</coordinates>
				</LinearRing>
			</outerBoundaryIs>
		</Polygon>
	</Placemark>
	<Placemark id="07D0783A654208E9D2E0">
		<name>Nue Westend</name>
		<LookAt>
			<longitude>14.51751647060656</longitude>
			<latitude>53.4520840638965</latitude>
			<altitude>17.97394452078848</altitude>
			<heading>0.9742055000374817</heading>
			<tilt>0</tilt>
			<gx:fovy>30</gx:fovy>
			<range>2902.349426286528</range>
			<altitudeMode>absolute</altitudeMode>
		</LookAt>
		<styleUrl>#__managed_style_197FD981094218035444</styleUrl>
		<LineString>
			<coordinates>
				14.51146922125177,53.4415820496903,0 14.51090340757678,53.44173526685667,0 14.51141086787498,53.44255238539904,0 14.51159517738016,53.44292603941584,0 14.51186198523181,53.44372535385029,0 14.51204747612584,53.44447833171726,0 14.51343073085809,53.44440718541518,0 14.5135000922045,53.44447184154017,0 14.5121844109244,53.44454099499293,0 14.51207418142661,53.44457293713931,0 14.51209669791982,53.44468946899837,0 14.51222542723992,53.44555815925342,0 14.51224601475048,53.44660466182057,0 14.51233069370686,53.44674057867345,0 14.51250678494592,53.44681490031745,0 14.51264644876834,53.44683471806098,0 14.51278672332014,53.44681209552804,0 14.51377518788665,53.44626175477072,0 14.51424908329867,53.44582398752851,0 14.51448450854177,53.44564304540904,0 14.51477355868473,53.44544926407345,0 14.51521364804834,53.44573527262293,0 14.51565593160266,53.44601449228348,0 14.51557532405141,53.44606148986819,0 14.51585675878333,53.44662994221238,0 14.51659644131977,53.44672813584675,0 14.51687947561773,53.44682386162453,0 14.51758546781609,53.44727000350773,0 14.51874323593966,53.44796350148183,0 14.51843588221171,53.44778127806833,0 14.51758161146899,53.44727146056082,0 14.51575518270528,53.44832798255064,0 14.51648149681889,53.44886115997627,0 14.51548087460155,53.44943290630999,0 14.51478866647097,53.44888800480899,0 14.51566689438017,53.4483593342899,0 14.51517349913099,53.44805174175631,0 14.51431534323552,53.44751414850041,0 14.5141484771647,53.44758498516351,0 14.51316602916203,53.44814688724951,0 14.51236704732154,53.44860674468794,0 14.51374853816473,53.44946054604623,0 14.514904500574,53.45017611329067,0 14.51519452378105,53.44999972113607,0 14.51545138634019,53.45017128434768,0 14.51611901198916,53.44977618425438,0 14.51704484926392,53.44922867323405,0 14.51734917884536,53.44942321488195,0 14.51795123718722,53.4497944816055,0 14.51872128437675,53.45026096641446,0 14.51923153198837,53.45133792096644,0 14.51970961514776,53.45137162717313,0 14.52001300425973,53.45124861982563,0 14.5200088016065,53.45063737482881,0 14.52011645824409,53.44960835696172,0 14.52000459993693,53.44927043730119,0 14.51994783796633,53.44920483421995,0 14.5195213016527,53.44972368307982,0 14.51910339251408,53.45008682785174,0 14.51878124103827,53.45032255759781,0 14.51785459734837,53.45101679808934,0 14.51714044044457,53.45158121753329,0 14.51648714832723,53.45116725661718,0 14.5163559626581,53.45121446489416,0 14.51615205978945,53.45131780423718,0 14.51586489467551,53.45151045364402,0 14.51574637283442,53.45159935706906,0 14.51565979523088,53.45168745073053,0 14.51560276375933,53.45177439973031,0 14.51548041476148,53.45191474728353,0 14.5153308604607,53.45206822703376,0 14.51511237240051,53.4522599259094,0 14.5150024609379,53.45235907202074,0 14.51490208040302,53.45246934315431,0 14.51475159211702,53.45247242059023,0 14.51458109748525,53.4524267495086,0 14.51441101872464,53.45237360302724,0 14.51412961835943,53.45228602258323,0 14.51407964096141,53.45241031192138,0 14.51389852870465,53.45262119301042,0 14.5137907987981,53.45273552050417,0 14.51363706718766,53.45284726420964,0 14.51336972357187,53.45300502207426,0 14.51312481610001,53.45314484966588,0 14.5128190222613,53.45327834520848,0 14.51272882508271,53.45331549903238,0 14.51248522761308,53.45343526496981,0 14.51233949018355,53.45332517633222,0 14.51255518357546,53.45324237727248,0 14.51263407345938,53.45329517866519,0 14.51294391629208,53.45315087744724,0 14.51323766797883,53.45299469235012,0 14.51348053348881,53.45283823840157,0 14.51374431042443,53.45260132371764,0 14.5139397399635,53.45240436911345,0 14.51397311378189,53.45220837462809,0 14.51367357692801,53.45189497883192,0 14.51336804351172,53.45161780691559,0 14.51323496820181,53.4515904168066,0 14.51312713597152,53.4516373841113,0 14.51305741456597,53.45163726363156,0 14.51284372600563,53.45153337456075,0 
			</coordinates>
		</LineString>
	</Placemark>
	<Placemark id="079DE3CBE64208EEDDF8">
		<name>Braunswelde2</name>
		<LookAt>
			<longitude>14.50861948820579</longitude>
			<latitude>53.43993328449737</latitude>
			<altitude>31.81098012353735</altitude>
			<heading>-60.64243814817677</heading>
			<tilt>52.35162321271568</tilt>
			<gx:fovy>29.99999999999999</gx:fovy>
			<range>309.9730186920715</range>
			<altitudeMode>absolute</altitudeMode>
		</LookAt>
		<styleUrl>#__managed_style_36BDEDD25C4218035444</styleUrl>
		<LineString>
			<coordinates>
				14.51147485539087,53.44158388040689,0 14.51122415477656,53.44117073732073,0 14.50935368756632,53.44168963597488,0 14.50947321625189,53.44138779274681,0 14.50952760198727,53.4412584106303,0 14.50958847009452,53.4410684105374,0 14.5098178230804,53.44040639489302,0 14.50942987644565,53.44049724879081,0 14.50942321466142,53.4403640914859,0 14.50945348199442,53.44029932642645,0 14.50949550062024,53.4402916032133,0 14.50952056754853,53.44022168101438,0 14.50988917367208,53.44026395071578,0 14.51003448446338,53.43985710460541,0 14.51006393445429,53.43977683321231,0 14.51018098294884,53.43951607627809,0 14.51051171911753,53.4385327598764,0 14.51096949346312,53.43720117655674,0 14.51079848991614,53.43714781782285,0 14.51057171737887,53.43711943812844,0 14.50825461049679,53.43681306064853,0 14.50823616145799,53.43688780009369,0 14.50898030810217,53.43698820657897,0 14.50904283676658,53.43700307927101,0 14.50885358719169,53.43758223220879,0 14.50858502971715,53.43830351426259,0 14.5084837266949,53.4386168065087,0 14.50842121942022,53.43875419268457,0 14.50832881040994,53.43899482544186,0 14.50782947465813,53.4404497730363,0 14.50758917607214,53.4411619701091,0 14.50750184294647,53.44135481994376,0 14.50740497727996,53.44169017906132,0 14.50733154828812,53.44188510309902,0 14.50718833732229,53.44221481558706,0 14.50705677049856,53.44223647276092,0 14.5071459422032,53.44248340097469,0 14.50661830160754,53.44256274972121,0 14.50665420301405,53.44264721902871,0 14.50686906644851,53.44317495993109,0 14.50682645069667,53.44317846218157,0 14.50662311521455,53.44274310633858,0 14.50521214111667,53.44294739747102,0 14.50505762622543,53.44253137620465,0 14.50511692182942,53.44244064616787,0 14.50520000558627,53.44221992171439,0 14.5055977583704,53.44108181316695,0 14.50515750375858,53.44101625357529,0 14.50521431595978,53.44080443915512,0 14.50540467707247,53.44026695329242,0 14.50556827937352,53.43972875466651,0 14.50570103085471,53.43931429218413,0 14.50900848447707,53.43973109350133,0 
			</coordinates>
		</LineString>
	</Placemark>
	<Placemark id="05B2B18F994208F27F24">
		<name>Tereny Wojskowe</name>
		<LookAt>
			<longitude>14.49295150818592</longitude>
			<latitude>53.44343586852094</latitude>
			<altitude>24.33804946299103</altitude>
			<heading>359.8209374881405</heading>
			<tilt>0</tilt>
			<gx:fovy>29.99999999999999</gx:fovy>
			<range>1222.672230968747</range>
			<altitudeMode>absolute</altitudeMode>
		</LookAt>
		<styleUrl>#__managed_style_0965C575E74218035444</styleUrl>
		<LineString>
			<coordinates>
				14.49760669744093,53.44458493015041,0 14.5008080388287,53.44349015034196,0 14.50213567159452,53.443049012931,0 14.50267046103765,53.44399698233389,0 14.50215363936275,53.44411393868418,0 14.50193707133516,53.44422537021619,0 14.50144985376335,53.44573163418263,0 14.5014039341242,53.44589514753518,0 14.50003942081054,53.44572569445948,0 14.50003293920715,53.44652910741841,0 14.50007958911507,53.44668712759297,0 14.49959781894327,53.44676694250464,0 14.49955110586878,53.44685914758269,0 14.49956400015826,53.44696573807968,0 14.50032622463278,53.44840487406585,0 14.50083254489425,53.44831442889882,0 14.50109042414021,53.44882731581015,0 14.50114778435359,53.44938767776382,0 14.50015092749619,53.44927727838986,0 14.50018919549806,53.4491367988492,0 14.4967792234317,53.44871468628646,0 14.49698344884504,53.44805627621461,0 14.49466982812342,53.44779872652423,0 14.4942670534751,53.44888035628662,0 14.49343633545185,53.44833579579502,0 14.49277273052255,53.44861806251824,0 14.49216904417078,53.44889861233676,0 14.49184024329565,53.448649747388,0 14.49088488644087,53.44893034796563,0 14.49027251504187,53.44854387909361,0 14.49002593653226,53.44830671053439,0 14.49098560819163,53.44786000715678,0 14.49185422036571,53.44740222600628,0 14.49194740387154,53.44734773920202,0 14.49117408092047,53.44688937300779,0 14.48825335619333,53.44834789664605,0 14.48758815306234,53.4478306851848,0 14.48716551037831,53.447509121663,0 14.4886353314696,53.44677735937434,0 14.49016435372339,53.44612211093233,0 14.48992349395357,53.44583958367553,0 14.4878594366846,53.44555030421136,0 14.48826429742863,53.44424189274297,0 14.48884366119535,53.44430610253183,0 14.48902500251262,53.44369552206616,0 14.48683298387126,53.44340745561497,0 14.48666928240304,53.44335033611895,0 14.48736462122476,53.44224311439894,0 14.48754571371866,53.44194459263734,0 14.48776748810599,53.44169854140754,0 14.48792800785097,53.44167332960131,0 14.48802069915592,53.441401868932,0 14.48876308195923,53.44157411476392,0 14.48952710266139,53.44168664474505,0 14.49048549755341,53.4418365557874,0 14.49144389920852,53.4419864591596,0 14.49247019559499,53.44210365571995,0 14.49358449605576,53.44221794170827,0 14.49542828515168,53.44242215042883,0 14.49594260714126,53.4424661058512,0 14.4959997749822,53.44263628645258,0 14.49566082348827,53.44367710763878,0 14.49551040783803,53.44417137063414,0 14.49549899895907,53.44453808345757,0 14.49586181076529,53.44483423093644,0 14.49626388655367,53.44506432800925,0 14.4975423450034,53.44460971375343,0 
			</coordinates>
		</LineString>
	</Placemark>
	<Placemark id="08EDB6BF1F4208E19CF4">
		<name>Oznaczenie miejsca bez nazwy</name>
		<visibility>0</visibility>
		<LookAt>
			<longitude>14.51767586914313</longitude>
			<latitude>53.43882652109958</latitude>
			<altitude>38.96084370695574</altitude>
			<heading>0</heading>
			<tilt>0</tilt>
			<gx:fovy>30</gx:fovy>
			<range>1269.445831711928</range>
			<altitudeMode>absolute</altitudeMode>
		</LookAt>
		<styleUrl>#__managed_style_0965C575E74218035444</styleUrl>
		<Point>
			<coordinates>14.51968479518287,53.43941562995762,47.80498747223271</coordinates>
		</Point>
	</Placemark>
	<Placemark id="0A129519CB4208E1BF5F">
		<name>Oznaczenie miejsca bez nazwy</name>
		<visibility>0</visibility>
		<LookAt>
			<longitude>14.51790099689313</longitude>
			<latitude>53.43875108052161</latitude>
			<altitude>43.27429111560694</altitude>
			<heading>0</heading>
			<tilt>0</tilt>
			<gx:fovy>30</gx:fovy>
			<range>953.1145253650902</range>
			<altitudeMode>absolute</altitudeMode>
		</LookAt>
		<styleUrl>#__managed_style_22C44E537F4218035444</styleUrl>
		<Point>
			<coordinates>14.5195012152449,53.43918409192467,33.71676578653148</coordinates>
		</Point>
	</Placemark>
</Document>
</kml>
